0 SL-8 DEB
1 15756U 83079D   13282.43562597  .00001313  00000-0  27307-3 0  3217
2 15756 074.0510 129.9771 0009450 051.6710 017.0131 14.61079790498331
0 SL-8 DEB
1 15756U 83079D   13286.97267206  .00001671  00000-0  34579-3 0  3237
2 15756 074.0507 121.3130 0009638 041.0817 122.1772 14.61089734498991
0 SL-8 DEB
1 15756U 83079D   13289.76905696  .00002042  00000-0  42112-3 0  3245
2 15756 074.0509 115.9725 0009737 034.5073 071.5180 14.61104784499403
0 SL-8 DEB
1 15756U 83079D   13291.97048891  .00002339  00000-0  48130-3 0  3252
2 15756 074.0512 111.7699 0009763 029.6415 131.1174 14.61111301499729
0 SL-8 DEB
1 15756U 83079D   13294.55231594  .00002873  00000-0  58961-3 0  3260
2 15756 074.0519 106.8391 0009838 023.3401 032.2852 14.61121527500109
